IRIDIUM 7               
1 24793U 97020B   24283.55825084  .00001734  00000+0  59659-3 0  9990
2 24793  86.3902 281.9100 0002158  96.9052 263.2390 14.35482326436155
IRIDIUM 5               
1 24795U 97020D   24283.88707859  .00015659  00000+0  14233-2 0  9996
2 24795  86.3969 198.6967 0115209 315.6085  43.5948 14.90132229448138
IRIDIUM 4               
1 24796U 97020E   24283.70034792  .00001441  00000+0  48557-3 0  9998
2 24796  86.3894 278.8887 0002184  89.5344 270.6103 14.36404717436508
IRIDIUM 914             
1 24836U 97030A   24284.53427962  .00002193  00000+0  68608-3 0  9995
2 24836  86.3882 287.8964 0001929  44.7183 315.4171 14.40317973433283
IRIDIUM 16              
1 24841U 97030F   24283.63547900  .00001574  00000+0  51221-3 0  9991
2 24841  86.4003 310.5707 0003496 129.9777 230.1728 14.38203543430989
IRIDIUM 911             
1 24842U 97030G   24284.53578442  .00002443  00000+0  66670-3 0  9997
2 24842  86.4430 309.2134 0013336 201.1706 158.8947 14.46945720438955
IRIDIUM 17              
1 24870U 97034B   24284.16385962  .00002079  00000+0  69063-3 0  9998
2 24870  86.3988 339.9186 0003807 102.2695 257.8929 14.37321317427666
IRIDIUM 920             
1 24871U 97034C   24283.80717252  .00001783  00000+0  54846-3 0  9994
2 24871  86.3964 319.8785 0011579 177.1220 183.0048 14.41012454430517
